IRIDIUM 26              
1 24903U 97043A   25288.77565508  .00000668  00000+0  21792-3 0  9992
2 24903  86.3944  59.9153 0002228  88.0557 272.0895 14.37251744474065
IRIDIUM 22              
1 24907U 97043E   25288.80550747  .00000610  00000+0  20329-3 0  9991
2 24907  86.3942  63.5475 0002049  88.8275 271.3157 14.36052875474089
DUMMY MASS 1            
1 24925U 97048A   25288.46730717  .00000730  00000+0  78118-4 0  9998
2 24925  86.3303  79.6714 0008973  82.6419 277.5825 14.87097837523008
DUMMY MASS 2            
1 24926U 97048B   25288.71872617  .00000737  00000+0  79408-4 0  9993
2 24926  86.3302  81.1861 0009771  90.7576 269.4769 14.86849304522818
IRIDIUM 29              
1 24944U 97051A   25288.71539961  .00000700  00000+0  23182-3 0  9996
2 24944  86.3900  93.3123 0001906  91.5681 268.5734 14.36576128470579
IRIDIUM 33              
1 24946U 97051C   25288.69093157  .00000508  00000+0  17158-3 0  9999
2 24946  86.3816  92.5934 0009474  54.0691 306.1383 14.34971336470028
IRIDIUM 28              
1 24948U 97051E   25288.75202292  .00000682  00000+0  22144-3 0  9994
2 24948  86.3907  90.7415 0002533  81.5422 278.6063 14.37482358471169
IRIDIUM 36              
1 24967U 97056C   25288.83559478  .00000623  00000+0  20086-3 0  9998
2 24967  86.3931 122.3400 0002145  80.9128 279.2312 14.37704989469559
